*******************************************************************************
JPL/HORIZONS                  109P/Swift-Tuttle            2024-Mar-05 13:25:51
Rec #:90000981 (+COV) Soln.date: 2001-Oct-09_15:34:49    # obs: 652 (1737-1995)
 
IAU76/J2000 helio. ecliptic osc. elements (au, days, deg., period=Julian yrs):
 
  EPOCH=  2450000.5 ! 1995-Oct-10.0000000 (TDB)    RMSW= n.a.
   EC= .9632257550460384   QR= .9595161550688684   TP= 2448968.4997845562
   OM= 139.3811920815948   W= 152.9821676305871    IN= 113.4538169971712
   A= 26.09206949782666    MA= 7.631696167124793   ADIST= 51.22462284058444
   PER= 133.2818438405     N= .007395053           ANGMOM= .023609822
   DAN= 13.27557           DDN= 1.0138             L= 330.8536722
   B= 24.6287339           MOID= .00089214         TP= 1992-Dec-11.9997845562
 
Comet physical (GM= km^3/s^2; RAD= km):
   GM= n.a.                RAD= 13.
   M1=  4.5      M2=  8.5      k1=  15.    k2=  10.     PHCOF= n.a.
COMET comments 
1: soln ref.= JPL#32, data arc: 1737-07-08 to 1995-03-29
2: k1=15.0, k2=10.0;
*******************************************************************************


*******************************************************************************
Ephemeris / WWW_USER Tue Mar  5 13:25:51 2024 Pasadena, USA      / Horizons
*******************************************************************************
Target body name: 109P/Swift-Tuttle               {source: JPL#32}
Center body name: Solar System Barycenter (0)     {source: DE441}
Center-site name: BODY CENTER
*******************************************************************************
Start time      : A.D. 1889-Mar-05 00:00:00.0000 TDB
Stop  time      : A.D. 2024-Apr-04 00:00:00.0000 TDB
Step-size       : 60000 minutes
*******************************************************************************
Center geodetic : 0.0, 0.0, 0.0                   {E-lon(deg),Lat(deg),Alt(km)}
Center cylindric: 0.0, 0.0, 0.0                   {E-lon(deg),Dxy(km),Dz(km)}
Center radii    : (undefined)
Small perturbers: Yes                             {source: SB441-N16}
Output units    : AU-D
Calendar mode   : Mixed Julian/Gregorian
Output type     : GEOMETRIC cartesian states
Output format   : 3 (position, velocity, LT, range, range-rate)
Reference frame : Ecliptic of J2000.0
*******************************************************************************
Initial IAU76/J2000 heliocentric ecliptic osculating elements (au, days, deg.):
  EPOCH=  2450000.5 ! 1995-Oct-10.0000000 (TDB)    RMSW= n.a.                  
   EC= .9632257550460384   QR= .9595161550688684   TP= 2448968.4997845562      
   OM= 139.3811920815948   W= 152.9821676305871    IN= 113.4538169971712       
  Equivalent ICRF heliocentric cartesian coordinates (au, au/d):
   X=-5.961434623156935E+00  Y= 3.700438936751722E+00  Z=-6.922297729421842E+00
  VX=-5.226325508711362E-03 VY= 3.593351825095821E-03 VZ=-2.911438559166090E-03
Comet physical (GM= km^3/s^2; RAD= km):                                        
   GM= n.a.                RAD= 13.                                            
   M1=  4.5      M2=  8.5      k1=  15.    k2=  10.     PHCOF= n.a.            
*******************************************************************************
            JDTDB,            Calendar Date (TDB),                      X,                      Y,                      Z,                     VX,                     VY,                     VZ,                     LT,                     RG,                     RR,
**************************************************************************************************************************************************************************************************************************************************************************
$$SOE
2429274.833333333, A.D. 1939-Jan-11 08:00:00.0000, -3.952603278279429E+01,  2.287366023577624E+01, -1.913194063476744E+01,  3.304765051103166E-04,  4.764737989583466E-05,  5.779586820360884E-04,  2.859635647968274E-01,  4.951305638496301E+01, -4.651303731095949E-04,
2429316.500000000, A.D. 1939-Feb-22 00:00:00.0000, -3.951217915197908E+01,  2.287559704640077E+01, -1.910781847597892E+01,  3.344983284369089E-04,  4.531903891542366E-05,  5.799049119819115E-04,  2.858510498290806E-01,  4.949357502220214E+01, -4.699756602250238E-04,
2429358.166666667, A.D. 1939-Apr-04 16:00:00.0000, -3.949815787564136E+01,  2.287743678126606E+01, -1.908361522766706E+01,  3.385234961644013E-04,  4.298773970626229E-05,  5.818509812655615E-04,  2.857373684096061E-01,  4.947389169458535E+01, -4.748246931926635E-04,
2429399.833333333, A.D. 1939-May-16 08:00:00.0000, -3.948396881368234E+01,  2.287917931664378E+01, -1.905933089626192E+01,  3.425520442789212E-04,  4.065345975211676E-05,  5.837969025814667E-04,  2.856225196319130E-01,  4.945400624515859E+01, -4.796775141487489E-04,
2429441.500000000, A.D. 1939-Jun-27 00:00:00.0000, -3.946961182449834E+01,  2.288082452786561E+01, -1.903496548766326E+01,  3.465840090282067E-04,  3.831617644834824E-05,  5.857426886857107E-04,  2.855065025793385E-01,  4.943391851520661E+01, -4.845341654929463E-04,
2429483.166666667, A.D. 1939-Aug-07 16:00:00.0000, -3.945508676496947E+01,  2.288237228931944E+01, -1.901051900723783E+01,  3.506194269430431E-04,  3.597586709648584E-05,  5.876883524126262E-04,  2.853893163249819E-01,  4.941362834424158E+01, -4.893946899141122E-04,
2429524.833333333, A.D. 1939-Sep-18 08:00:00.0000, -3.944039349044837E+01,  2.288382247444504E+01, -1.898599145981600E+01,  3.546583348059684E-04,  3.363250888293850E-05,  5.896339066684717E-04,  2.852709599316365E-01,  4.939313556999114E+01, -4.942591303724583E-04,
2429566.500000000, A.D. 1939-Oct-30 00:00:00.0000, -3.942553185474961E+01,  2.288517495572975E+01, -1.896138284968911E+01,  3.587007696737602E-04,  3.128607890885606E-05,  5.915793644264407E-04,  2.851514324517256E-01,  4.937244002838750E+01, -4.991275301015021E-04,
2429608.166666667, A.D. 1939-Dec-10 16:00:00.0000, -3.941050171013696E+01,  2.288642960470424E+01, -1.893669318060548E+01,  3.627467689301827E-04,  2.893655413795262E-05,  5.935247387860109E-04,  2.850307329272265E-01,  4.935154155355414E+01, -5.039999326968760E-04,
2429649.833333333, A.D. 1940-Jan-21 08:00:00.0000, -3.939530290731009E+01,  2.288758629193557E+01, -1.891192245576512E+01,  3.667963702591602E-04,  2.658391135464544E-05,  5.954700429593438E-04,  2.849088603895811E-01,  4.933043997779044E+01, -5.088763821087958E-04,
2429691.500000000, A.D. 1940-Mar-03 00:00:00.0000, -3.937993529539276E+01,  2.288864488702029E+01, -1.888707067781555E+01,  3.708496116245643E-04,  2.422812719429922E-05,  5.974152902567634E-04,  2.847858138596167E-01,  4.930913513155793E+01, -5.137569226060726E-04,
2429733.166666667, A.D. 1940-Apr-13 16:00:00.0000, -3.936439872192052E+01,  2.288960525857783E+01, -1.886213784884721E+01,  3.749065312994456E-04,  2.186917811098270E-05,  5.993604941074962E-04,  2.846615923474650E-01,  4.928762684346616E+01, -5.186415988221010E-04,
2429774.833333333, A.D. 1940-May-25 08:00:00.0000, -3.934869303282801E+01,  2.289046727424288E+01, -1.883712397038859E+01,  3.789671678500232E-04,  1.950704038258033E-05,  6.013056680590527E-04,  2.845361948524737E-01,  4.926591494025763E+01, -5.235304557391989E-04,
2429816.500000000, A.D. 1940-Jul-06 00:00:00.0000, -3.933281807243612E+01,  2.289123080065720E+01, -1.881202904340081E+01,  3.830315601800272E-04,  1.714169006302948E-05,  6.032508258028153E-04,  2.844096203631178E-01,  4.924399924679219E+01, -5.284235387557276E-04,
2429858.166666667, A.D. 1940-Aug-16 16:00:00.0000, -3.931677368343867E+01,  2.289189570345944E+01, -1.878685306827148E+01,  3.870997474694641E-04,  1.477310295169903E-05,  6.051959811647302E-04,  2.842818678568997E-01,  4.922187958602984E+01, -5.333208936476122E-04,
2429899.833333333, A.D. 1940-Sep-27 08:00:00.0000, -3.930055970689138E+01,  2.289246184727518E+01, -1.876159604481021E+01,  3.911717691740421E-04,  1.240125462537307E-05,  6.071411480661272E-04,  2.841529363002647E-01,  4.919955577901615E+01, -5.382225665378474E-04,
2429941.500000000, A.D. 1940-Nov-08 00:00:00.0000, -3.928417598219961E+01,  2.289292909570805E+01, -1.873625797224381E+01,  3.952476650542920E-04,  1.002612043974652E-05,  6.090863405675631E-04,  2.840228246485133E-01,  4.917702764486701E+01, -5.431286039355782E-04,
2429983.166666667, A.D. 1940-Dec-19 16:00:00.0000, -3.926762234710603E+01,  2.289329731132871E+01, -1.871083884921023E+01,  3.993274751585206E-04,  7.647675459900135E-06,  6.110315728661357E-04,  2.838915318457045E-01,  4.915429500075193E+01, -5.480390527535740E-04,
2430024.833333333, A.D. 1941-Jan-30 08:00:00.0000, -3.925089863767921E+01,  2.289356635566311E+01, -1.868533867375346E+01,  4.034112397885115E-04,  5.265894473344833E-06,  6.129768592774971E-04,  2.837590568245642E-01,  4.913135766187806E+01, -5.529539602677284E-04,
2430066.500000000, A.D. 1941-Mar-13 00:00:00.0000, -3.923400468830320E+01,  2.289373608918044E+01, -1.865975744331847E+01,  4.074989994964196E-04,  2.880751962806815E-06,  6.149222142328698E-04,  2.836253985063960E-01,  4.910821544147496E+01, -5.578733741259592E-04,
2430108.166666667, A.D. 1941-Apr-23 16:00:00.0000, -3.921694033166791E+01,  2.289380637128070E+01, -1.863409515474720E+01,  4.115907950483621E-04,  4.922221325670790E-07,  6.168676522455079E-04,  2.834905558009984E-01,  4.908486815078010E+01, -5.627973422939709E-04,
2430149.833333333, A.D. 1941-Jun-04 08:00:00.0000, -3.919970539875956E+01,  2.289377706028331E+01, -1.860835180427475E+01,  4.156866674607727E-04, -1.899721099029228E-06,  6.188131879363048E-04,  2.833545276065856E-01,  4.906131559902516E+01, -5.677259130973918E-04,
2430191.500000000, A.D. 1941-Jul-16 00:00:00.0000, -3.918229971885049E+01,  2.289364801341393E+01, -1.858252738752464E+01,  4.197866579679072E-04, -4.295104154440226E-06,  6.207588360336660E-04,  2.832173128096971E-01,  4.903755759342043E+01, -5.726591352212287E-04,
